CUBEBUG-2 (LO-74)       
1 39440U 13066AA  26166.38852800  .00003783  00000+0  35100-3 0  9993
2 39440  97.8905 115.3590 0058509  34.8517 325.6511 14.93747885676726
FUNCUBE-1 (AO-73)       
1 39444U 13066AE  26166.46559247  .00005832  00000+0  36309-3 0  9994
2 39444  97.8272 137.8755 0035505 207.0229 152.9152 15.09471681679400
UWE-3                   
1 39446U 13066AG  26166.41095872  .00003615  00000+0  31229-3 0  9993
2 39446  97.8693 122.4726 0047855 327.0614  32.7628 14.97011844677317
UNISAT-6                
1 40012U 14033C   26166.38519403  .00002497  00000+0  27116-3 0  9993
2 40012  97.7874 319.1286 0046291  75.0953 285.5383 14.88238232645899
DUCHIFAT-1              
1 40021U 14033M   26166.42257014  .00087303  00000+0  90897-3 0  9990
2 40021  98.0462 225.3358 0003280 119.3803 240.7782 15.64281009655477
QB50P1                  
1 40025U 14033R   26166.50240755  .00007203  00000+0  35526-3 0  9996
2 40025  98.0960 177.5301 0007678 221.8963 138.1683 15.18239692652771
LILACSAT-2              
1 40908U 15049K   26166.46628110  .00014579  00000+0  24905-3 0  9997
2 40908  97.4644 203.2424 0005405 253.3485 106.7174 15.51395885595485
FOX-1A (AO-85)          
1 40967U 15058D   26166.54154159  .00002095  00000+0  19529-3 0  9994
2 40967  64.7762 284.0978 0130352  57.2296 304.1297 14.90963105113327
CAS-2T & KS-1Q          
1 41847U 16066G   26166.16278910  .00001557  00000+0  22513-3 0  9991
2 41847  98.3821 241.9223 0342730 135.6008 227.3214 14.44688208504502
RADFXSAT (FOX-1B)       
1 43017U 17073E   26166.42200516  .00007151  00000+0  31325-3 0  9994
2 43017  97.4706  33.6731 0149803 335.4112  24.0025 15.12695557465124
DIWATA-2B               
1 43678U 18084H   26166.50267685  .00002184  00000+0  17855-3 0  9992
2 43678  98.1176   2.6377 0012379 175.6128 184.5205 15.00445340415965
ES'HAIL 2               
1 43700U 18090A   26166.33545784  .00000147  00000+0  00000+0 0  9992
2 43700   0.0190  16.9372 0001590 108.2678 284.9691  1.00269691 27654
FOX-1CLIFF (AO-95)      
1 43770U 18099N   26166.11139331  .00011091  00000+0  42485-3 0  9998
2 43770  97.4386 226.3649 0008201   5.4671 354.6656 15.26676025412907
ITASAT                  
1 43786U 18099AE  26166.37485499  .00005444  00000+0  26262-3 0  9992
2 43786  97.4029 217.9224 0012300   6.7006 353.4391 15.19036687412633
JY1SAT (JO-97)          
1 43803U 18099AX  26166.07308693  .00015590  00000+0  48189-3 0  9994
2 43803  97.4132 228.8995 0004244 272.7751  87.3006 15.33596637413307
UWE-4                   
1 43880U 18111E   26166.53236110  .00028345  00000+0  58058-3 0  9997
2 43880  97.5855  94.8474 0005794 350.1958   9.9176 15.46038533410528
TIANYAN 01              
1 44881U 19093C   26166.49656096  .00001276  00000+0  14992-3 0  9996
2 44881  97.7539 238.7696 0015109  92.1419 268.1527 14.86519010351162
RS-44 & BREEZE-KM R/B   
1 44909U 19096E   26166.51974616  .00000010  00000+0 -10932-4 0  9991
2 44909  82.5218 340.8131 0218107 148.0537 213.4006 12.79748866302134
SALSAT                  
1 46495U 20068K   26166.51026536  .00006457  00000+0  22659-3 0  9991
2 46495  97.8844 169.4726 0008149 315.3702  44.6880 15.29779241315105
XW-3 (CAS-9)            
1 50466U 21131B   26166.52738840  .00000495  00000+0  16648-3 0  9992
2 50466  98.4985 258.9259 0005368 100.6456 259.5338 14.41356517234876
GREENCUBE (IO-117)      
1 53109U 22080E   26164.29338770 -.00000003  00000+0  00000+0 0  9990
2 53109  70.1444 299.5995 0008910 290.4576  69.5127  6.42583230 91811
UMKA 1 (RS40S)          
1 57172U 23091G   26166.51480431  .00005959  00000+0  27274-3 0  9996
2 57172  97.5052 225.2183 0014190 122.8489 237.4114 15.20802149163750
CUBESX-HSE 3 (RS42S)    
1 57178U 23091N   26166.47473138  .00011489  00000+0  38311-3 0  9992
2 57178  97.5096 232.0401 0012057 100.0014 260.2588 15.31178233164162
MONITOR-3 (RS58S)       
1 57180U 23091Q   26166.49544672  .00009108  00000+0  33723-3 0  9996
2 57180  97.5087 229.9288 0013115 105.9947 254.2738 15.27813574164033
MONITOR-4 (RS57S)       
1 57182U 23091S   26166.47459795  .00008805  00000+0  32528-3 0  9992
2 57182  97.5082 229.8790 0013112 106.3903 253.8778 15.27897716164030
MONITOR-2 (RS39S)       
1 57184U 23091U   26166.46808100  .00004292  00000+0  20864-3 0  9997
2 57184  97.5075 224.7620 0012686 116.3040 243.9499 15.18896787163696
SVYATOBOR 1 (RS60S)     
1 57187U 23091X   26166.48622241  .00007563  00000+0  29131-3 0  9992
2 57187  97.5094 230.2937 0010897  99.4753 260.7717 15.26590928164055
VIZARD-METEO (RS38S)    
1 57189U 23091Z   26166.51896502  .00014093  00000+0  40396-3 0  9993
2 57189  97.5097 235.9702 0008364  82.7976 277.4218 15.35981051164434
POLYTECH-UNIVERSE 3 (R*)
1 57191U 23091AB  26166.49551132  .00004772  00000+0  22990-3 0  9993
2 57191  97.5050 224.2938 0016788 132.1509 228.1155 15.19099486163693
UTMN 2 (RS27S)          
1 57203U 23091AP  26166.49325391  .00011031  00000+0  35883-3 0  9994
2 57203  97.5092 233.6906 0009347  88.8740 271.3573 15.32016720164284
