OBJECT_NAME,OBJECT_ID,EPOCH,MEAN_MOTION,ECCENTRICITY,INCLINATION,RA_OF_ASC_NODE,ARG_OF_PERICENTER,MEAN_ANOMALY,EPHEMERIS_TYPE,CLASSIFICATION_TYPE,NORAD_CAT_ID,ELEMENT_SET_NO,REV_AT_EPOCH,BSTAR,MEAN_MOTION_DOT,MEAN_MOTION_DDOT
CUBEBUG-2 (LO-74),2013-066AA,2026-06-15T09:19:28.819200,14.93747885,.0058509,97.8905,115.3590,34.8517,325.6511,0,U,39440,999,67672,.351E-3,.3783E-4,0
FUNCUBE-1 (AO-73),2013-066AE,2026-06-15T11:10:27.189408,15.09471681,.0035505,97.8272,137.8755,207.0229,152.9152,0,U,39444,999,67940,.36309E-3,.5832E-4,0
UWE-3,2013-066AG,2026-06-15T09:51:46.833408,14.97011844,.0047855,97.8693,122.4726,327.0614,32.7628,0,U,39446,999,67731,.31229E-3,.3615E-4,0
UNISAT-6,2014-033C,2026-06-15T09:14:40.764192,14.88238232,.0046291,97.7874,319.1286,75.0953,285.5383,0,U,40012,999,64589,.27116E-3,.2497E-4,0
DUCHIFAT-1,2014-033M,2026-06-15T10:08:30.060096,15.64281009,.000328,98.0462,225.3358,119.3803,240.7782,0,U,40021,999,65547,.90897E-3,.87303E-3,0
QB50P1,2014-033R,2026-06-15T12:03:28.012320,15.18239692,.0007678,98.0960,177.5301,221.8963,138.1683,0,U,40025,999,65277,.35526E-3,.7203E-4,0
LILACSAT-2,2015-049K,2026-06-15T11:11:26.687040,15.51395885,.0005405,97.4644,203.2424,253.3485,106.7174,0,U,40908,999,59548,.24905E-3,.14579E-3,0
FOX-1A (AO-85),2015-058D,2026-06-15T12:59:49.193376,14.90963105,.0130352,64.7762,284.0978,57.2296,304.1297,0,U,40967,999,11332,.19529E-3,.2095E-4,0
CAS-2T & KS-1Q,2016-066G,2026-06-15T03:54:24.978240,14.44688208,.03427308,98.3821,241.9223,135.6008,227.3214,0,U,41847,999,50450,.22512618E-3,.1557E-4,0
RADFXSAT (FOX-1B),2017-073E,2026-06-15T10:07:41.245824,15.12695557,.0149803,97.4706,33.6731,335.4112,24.0025,0,U,43017,999,46512,.31325E-3,.7151E-4,0
DIWATA-2B,2018-084H,2026-06-15T12:03:51.279840,15.00445340,.0012379,98.1176,2.6377,175.6128,184.5205,0,U,43678,999,41596,.17855E-3,.2184E-4,0
ES'HAIL 2,2018-090A,2026-06-15T08:03:03.557376,1.00269691,.000159,0.0190,16.9372,108.2678,284.9691,0,U,43700,999,2765,0,.147E-5,0
FOX-1CLIFF (AO-95),2018-099N,2026-06-15T02:40:24.381984,15.26676025,.00082015,97.4386,226.3649,5.4671,354.6656,0,U,43770,999,41290,.42484903E-3,.11091E-3,0
ITASAT,2018-099AE,2026-06-15T08:59:47.471136,15.19036687,.00123,97.4029,217.9224,6.7006,353.4391,0,U,43786,999,41263,.26262E-3,.5444E-4,0
JY1SAT (JO-97),2018-099AX,2026-06-15T01:45:14.710752,15.33596637,.00042443,97.4132,228.8995,272.7751,87.3006,0,U,43803,999,41330,.4818861E-3,.1559E-3,0
UWE-4,2018-111E,2026-06-15T12:46:35.999040,15.46038533,.0005794,97.5855,94.8474,350.1958,9.9176,0,U,43880,999,41052,.58058E-3,.28345E-3,0
TIANYAN 01,2019-093C,2026-06-15T11:55:02.866944,14.86519010,.0015109,97.7539,238.7696,92.1419,268.1527,0,U,44881,999,35116,.14992E-3,.1276E-4,0
RS-44 & BREEZE-KM R/B,2019-096E,2026-06-15T12:28:26.068224,12.79748866,.0218107,82.5218,340.8131,148.0537,213.4006,0,U,44909,999,30213,-.10932E-4,.1E-6,0
SALSAT,2020-068K,2026-06-15T12:14:46.927104,15.29779241,.0008149,97.8844,169.4726,315.3702,44.6880,0,U,46495,999,31510,.22659E-3,.6457E-4,0
XW-3 (CAS-9),2021-131B,2026-06-15T12:39:26.357760,14.41356517,.0005368,98.4985,258.9259,100.6456,259.5338,0,U,50466,999,23487,.16648E-3,.495E-5,0
GREENCUBE (IO-117),2022-080E,2026-06-13T07:02:28.697280,6.42583230,.00089108,70.1444,299.5995,290.4576,69.5127,0,U,53109,999,9181,0,-.3E-7,0
UMKA 1 (RS40S),2023-091G,2026-06-15T12:21:19.092384,15.20802149,.001419,97.5052,225.2183,122.8489,237.4114,0,U,57172,999,16375,.27274E-3,.5959E-4,0
CUBESX-HSE 3 (RS42S),2023-091N,2026-06-15T11:23:36.791232,15.31178233,.0012057,97.5096,232.0401,100.0014,260.2588,0,U,57178,999,16416,.38311E-3,.11489E-3,0
MONITOR-3 (RS58S),2023-091Q,2026-06-15T11:53:26.596608,15.27813574,.0013115,97.5087,229.9288,105.9947,254.2738,0,U,57180,999,16403,.33723E-3,.9108E-4,0
MONITOR-4 (RS57S),2023-091S,2026-06-15T11:23:25.262880,15.27897716,.0013112,97.5082,229.8790,106.3903,253.8778,0,U,57182,999,16403,.32528E-3,.8805E-4,0
MONITOR-2 (RS39S),2023-091U,2026-06-15T11:14:02.198400,15.18896787,.0012686,97.5075,224.7620,116.3040,243.9499,0,U,57184,999,16369,.20864E-3,.4292E-4,0
SVYATOBOR 1 (RS60S),2023-091X,2026-06-15T11:40:09.616224,15.26590928,.0010897,97.5094,230.2937,99.4753,260.7717,0,U,57187,999,16405,.29131E-3,.7563E-4,0
VIZARD-METEO (RS38S),2023-091Z,2026-06-15T12:27:18.577728,15.35981051,.0008364,97.5097,235.9702,82.7976,277.4218,0,U,57189,999,16443,.40396E-3,.14093E-3,0
POLYTECH-UNIVERSE 3 (RS46S),2023-091AB,2026-06-15T11:53:32.178048,15.19099486,.0016788,97.5050,224.2938,132.1509,228.1155,0,U,57191,999,16369,.2299E-3,.4772E-4,0
UTMN 2 (RS27S),2023-091AP,2026-06-15T11:50:17.137824,15.32016720,.0009347,97.5092,233.6906,88.8740,271.3573,0,U,57203,999,16428,.35883E-3,.11031E-3,0
